NORAD_CAT_ID,OBJECT_NAME,OBJECT_TYPE,EPOCH,MEAN_MOTION,ECCENTRICITY,INCLINATION,RA_OF_ASC_NODE,ARG_OF_PERICENTER,MEAN_ANOMALY,BSTAR,MEAN_MOTION_DOT,MEAN_MOTION_DDOT,TLE_LINE0,TLE_LINE1,TLE_LINE2,SEMIMAJOR_AXIS,PERIOD,APOGEE,PERIGEE,DECAYED
51781.0,STARLINK-3580,PAYLOAD,2022-04-11 22:00:00,15.73183888,0.0001329,53.2144,279.5613,60.8104,151.5535,0.00020281,0.00027918,0.0,0 STARLINK-3580,1 51781U 22017P   22101.91667824  .00027918  00000-0  20281-3 0  9996,2 51781  53.2144 279.5613 0001329  60.8104 151.5535 15.73183888  3695,6727.941,91.534,350.7,348.912,0.0
51781.0,STARLINK-3580,PAYLOAD,2022-04-12 04:00:00,15.73200016,0.0001309,53.2139,278.3227,64.9982,124.0541,-0.00026043,-0.00037009,0.0,0 STARLINK-3580,1 51781U 22017P   22102.16667824 -.00037009  00000-0 -26043-3 0  9990,2 51781  53.2139 278.3227 0001309  64.9982 124.0541 15.73200016  8403,6727.895,91.533,350.641,348.879,0.0
51781.0,STARLINK-3580,PAYLOAD,2022-04-12 14:00:01,15.73217067,0.0001198,53.2142,276.2606,70.5924,319.5635,-0.00063167,-0.00088408,0.0,0 STARLINK-3580,1 51781U 22017P   22102.58334491 -.00088408  00000-0 -63167-3 0  9994,2 51781  53.2142 276.2606 0001198  70.5924 319.5635 15.73217067  3695,6727.847,91.532,350.51800000000014,348.906,0.0
51781.0,STARLINK-3580,PAYLOAD,2022-04-12 20:00:01,15.73138587,0.0001224,53.2142,275.0249,59.0544,307.8089,0.0004941,0.00069113,0.0,0 STARLINK-3580,1 51781U 22017P   22102.83334491  .00069113  00000-0  49410-3 0  9997,2 51781  53.2142 275.0249 0001224  59.0544 307.8089 15.73138587  8513,6728.07,91.537,350.759,349.112,0.0
51781.0,STARLINK-3580,PAYLOAD,2022-04-12 22:00:00,15.7313095,0.0001173,53.2141,274.6127,54.5128,64.5724,0.00078564,0.00110775,0.0,0 STARLINK-3580,1 51781U 22017P   22102.91667824  .00110775  00000-0  78564-3 0  9998,2 51781  53.2141 274.6127 0001173  54.5128  64.5724 15.73130950  3685,6728.092,91.537,350.746,349.168,0.0
51781.0,STARLINK-3580,PAYLOAD,2022-04-13 14:00:03,15.72951701,0.0001242,53.2168,271.296,63.1224,233.999,-0.0012064,-0.00164892,0.0,0 STARLINK-3580,1 51781U 22017P   22103.58336806 -.00164892  00000-0 -12064-2 0  9998,2 51781  53.2168 271.2960 0001242  63.1224 233.9990 15.72951701  8633,6728.603,91.548,351.30400000000014,349.63199999999995,0.0
51781.0,STARLINK-3580,PAYLOAD,2022-04-13 22:00:00,15.72875235,0.0001046,53.2174,269.6443,69.1387,316.4309,-0.0056203999999999,-0.00715465,0.0,0 STARLINK-3580,1 51781U 22017P   22103.91667824 -.00715465  00000-0 -56204-2 0  9994,2 51781  53.2174 269.6443 0001046  69.1387 316.4309 15.72875235  8688,6728.821,91.552,351.39,349.982,0.0
51781.0,STARLINK-3580,PAYLOAD,2022-04-14 14:00:01,15.71856455,0.0001499,53.2175,266.3485,46.6696,154.7443,-0.005887,-0.00717361,0.0,0 STARLINK-3580,1 51781U 22017P   22104.58334491 -.00717361  00000-0 -58870-2 0  9997,2 51781  53.2175 266.3485 0001499  46.6696 154.7443 15.71856455  3706,6731.728,91.611,354.602,352.584,0.0
51781.0,STARLINK-3580,PAYLOAD,2022-04-14 22:00:00,15.71344878,0.0001123,53.2173,264.7046,72.336,216.0799,-0.0059862,-0.00713961,0.0,0 STARLINK-3580,1 51781U 22017P   22104.91667824 -.00713961  00000-0 -59862-2 0  9997,2 51781  53.2173 264.7046 0001123  72.3360 216.0799 15.71344878  8844,6733.189,91.641,355.811,354.298,0.0
51781.0,STARLINK-3580,PAYLOAD,2022-04-15 14:00:01,15.70327327,0.0001367,53.2175,261.4166,47.4337,53.1492,-0.0062913,-0.00718459,0.0,0 STARLINK-3580,1 51781U 22017P   22105.58334491 -.00718459  00000-0 -62913-2 0  9990,2 51781  53.2175 261.4166 0001367  47.4337  53.1492 15.70327327  3697,6736.098000000001,91.701,358.884,357.042,0.0
51781.0,STARLINK-3580,PAYLOAD,2022-04-15 22:00:00,15.69814311,0.0001332,53.2172,259.7759,55.8053,129.9422,-0.006372,-0.00712681,0.0,0 STARLINK-3580,1 51781U 22017P   22105.91667824 -.00712681  00000-0 -63720-2 0  9994,2 51781  53.2172 259.7759 0001332  55.8053 129.9422 15.69814311  8997,6737.565,91.731,360.328,358.533,0.0
51781.0,STARLINK-3580,PAYLOAD,2022-04-16 14:00:01,15.68798574,0.0001456,53.2175,256.4955,38.9123,315.3246,-0.0067208,-0.00719947,0.0,0 STARLINK-3580,1 51781U 22017P   22106.58334491 -.00719947  00000-0 -67208-2 0  9996,2 51781  53.2175 256.4955 0001456  38.9123 315.3246 15.68798574  3709,6740.473000000001,91.79,363.32,361.357,0.0
51781.0,STARLINK-3580,PAYLOAD,2022-04-16 22:00:01,15.68286793,0.000122,53.217,254.8586,52.648,24.9801,-0.0068269,-0.00716261,0.0,0 STARLINK-3580,1 51781U 22017P   22106.91668981 -.00716261  00000-0 -68269-2 0  9991,2 51781  53.2170 254.8586 0001220  52.6480  24.9801 15.68286793  9154,6741.94,91.82,364.627,362.982,0.0
51781.0,STARLINK-3580,PAYLOAD,2022-04-17 14:00:01,15.67265825,0.0001495,53.2175,251.5858,47.8773,194.4999,-0.0071026,-0.00714764,0.0,0 STARLINK-3580,1 51781U 22017P   22107.58334491 -.00714764  00000-0 -71026-2 0  9992,2 51781  53.2175 251.5858 0001495  47.8773 194.4999 15.67265825  3719,6744.8669999999975,91.88,367.74,365.724,0.0
51781.0,STARLINK-3580,PAYLOAD,2022-04-17 22:00:00,15.66757812,0.0001243,53.2173,249.9523,50.4214,273.4418,-0.0072738999999999,-0.00716749,0.0,0 STARLINK-3580,1 51781U 22017P   22107.91667824 -.00716749  00000-0 -72739-2 0  9995,2 51781  53.2173 249.9523 0001243  50.4214 273.4418 15.66757812  3690,6746.325,91.91,369.029,367.351,0.0
51781.0,STARLINK-3580,PAYLOAD,2022-04-18 08:00:01,15.66120211,0.0001563,53.2174,247.9092,42.3534,112.5091,-0.0074749,-0.00717711,0.0,0 STARLINK-3580,1 51781U 22017P   22108.33334491 -.00717711  00000-0 -74749-2 0  9996,2 51781  53.2174 247.9092 0001563  42.3534 112.5091 15.66120211  9378,6748.156,91.947,371.076,368.966,0.0
51781.0,STARLINK-3580,PAYLOAD,2022-04-18 14:00:01,15.65735842,0.0001812,53.2175,246.6873,31.8568,93.1446,-0.0075559,-0.00714628,0.0,0 STARLINK-3580,1 51781U 22017P   22108.58334491 -.00714628  00000-0 -75559-2 0  9997,2 51781  53.2175 246.6873 0001812  31.8568  93.1446 15.65735842  3709,6749.26,91.97,372.348,369.902,0.0
51781.0,STARLINK-3580,PAYLOAD,2022-04-18 22:00:00,15.65228033,0.0001473,53.217,245.0573,48.5972,156.0522,-0.0077507999999999,-0.00717853,0.0,0 STARLINK-3580,1 51781U 22017P   22108.91667824 -.00717853  00000-0 -77508-2 0  9992,2 51781  53.2170 245.0573 0001473  48.5972 156.0522 15.65228033  3704,6750.72,91.999,373.579,371.591,0.0
51781.0,STARLINK-3580,PAYLOAD,2022-04-19 14:00:01,15.64208158,0.000165,53.2174,241.7998,32.5559,329.5537,-0.0080725,-0.00717787,0.0,0 STARLINK-3580,1 51781U 22017P   22109.58334491 -.00717787  00000-0 -80725-2 0  9998,2 51781  53.2174 241.7998 0001650  32.5559 329.5537 15.64208158  9572,6753.654,92.059,376.633,374.405,0.0
51781.0,STARLINK-3580,PAYLOAD,2022-04-20 14:00:01,15.62675182,0.0001926,53.2176,236.9235,33.0511,200.6537,-0.0085097,-0.00712615,0.0,0 STARLINK-3580,1 51781U 22017P   22110.58334491 -.00712615  00000-0 -85097-2 0  9992,2 51781  53.2176 236.9235 0001926  33.0511 200.6537 15.62675182  3705,6758.07,92.15,381.237,378.634,0.0
51781.0,STARLINK-3580,PAYLOAD,2022-04-20 22:00:00,15.62168841,0.0001520999999999,53.2173,235.3005,39.3889,270.2869,-0.008752,-0.00717913,0.0,0 STARLINK-3580,1 51781U 22017P   22110.91667824 -.00717913  00000-0 -87520-2 0  9997,2 51781  53.2173 235.3005 0001521  39.3889 270.2869 15.62168841  9782,6759.53,92.18,382.424,380.367,0.0
51781.0,STARLINK-3580,PAYLOAD,2022-04-21 14:00:01,15.61147604,0.0002003,53.2173,232.0585,27.4134,72.3694,-0.0090814,-0.00716104,0.0,0 STARLINK-3580,1 51781U 22017P   22111.58334491 -.00716104  00000-0 -90814-2 0  9993,2 51781  53.2173 232.0585 0002003  27.4134  72.3694 15.61147604  3713,6762.478,92.24,385.697,382.98800000000006,0.0
51781.0,STARLINK-3580,PAYLOAD,2022-04-21 22:00:00,15.60637982,0.0001559,53.2172,230.439,46.0481,127.8688,-0.0092711,-0.00716612,0.0,0 STARLINK-3580,1 51781U 22017P   22111.91667824 -.00716612  00000-0 -92711-2 0  9991,2 51781  53.2172 230.4390 0001559  46.0481 127.8688 15.60637982  3716,6763.95,92.27,386.87,384.761,0.0
51781.0,STARLINK-3580,PAYLOAD,2022-04-22 14:00:01,15.59617574,0.0001678,53.2173,227.2044,36.0621,284.2845,-0.0096302,-0.00715768,0.0,0 STARLINK-3580,1 51781U 22017P   22112.58334491 -.00715768  00000-0 -96302-2 0  9997,2 51781  53.2173 227.2044 0001678  36.0621 284.2845 15.59617574  3709,6766.9,92.33,389.901,387.63,0.0
51781.0,STARLINK-3580,PAYLOAD,2022-04-23 06:00:02,15.58597282,0.0001675,53.2174,223.9725,35.1229,69.2685,-0.010001,-0.00714971,0.0,0 STARLINK-3580,1 51781U 22017P   22113.25002315 -.00714971  00000-0 -10001-1 0  9995,2 51781  53.2174 223.9725 0001675  35.1229  69.2685 15.58597282 10141,6769.853,92.391,392.852,390.584,0.0
51781.0,STARLINK-3580,PAYLOAD,2022-04-23 14:00:01,15.58086572,0.0002164,53.2174,222.3614,28.9147,146.4811,-0.010173,-0.00713532,0.0,0 STARLINK-3580,1 51781U 22017P   22113.58334491 -.00713532  00000-0 -10173-1 0  9996,2 51781  53.2174 222.3614 0002164  28.9147 146.4811 15.58086572  3690,6771.331999999999,92.421,394.662,391.732,0.0
51781.0,STARLINK-3580,PAYLOAD,2022-04-24 06:00:00,15.57066163,0.0001588,53.2175,219.1369,38.3929,277.3059,-0.010555,-0.00712326,0.0,0 STARLINK-3580,1 51781U 22017P   22114.25001157 -.00712326  00000-0 -10555-1 0  9995,2 51781  53.2175 219.1369 0001588  38.3929 277.3059 15.57066163 10301,6774.29,92.482,397.231,395.079,0.0
51781.0,STARLINK-3580,PAYLOAD,2022-04-24 14:00:01,15.56559057,0.0001919,53.2174,217.5297,26.4583,358.47,-0.010839,-0.0071732,0.0,0 STARLINK-3580,1 51781U 22017P   22114.58334491 -.00717320  00000-0 -10839-1 0  9995,2 51781  53.2174 217.5297 0001919  26.4583 358.4700 15.56559057  3690,6775.761,92.512,398.927,396.326,0.0
51781.0,STARLINK-3580,PAYLOAD,2022-04-25 06:00:00,15.55537583,0.0001771,53.2173,214.3124,37.0868,124.4681,-0.011197,-0.00713607,0.0,0 STARLINK-3580,1 51781U 22017P   22115.25001157 -.00713607  00000-0 -11197-1 0  9992,2 51781  53.2173 214.3124 0001771  37.0868 124.4681 15.55537583 10453,6778.727,92.572,401.793,399.392,0.0
